[{"OBJECT_NAME":"SDA_1670","OBJECT_ID":"2025-230G","EPOCH":"2026-03-09T17:23:00.469536","MEAN_MOTION":13.84837821,"ECCENTRICITY":0.00038733,"INCLINATION":81.2981,"RA_OF_ASC_NODE":303.9295,"ARG_OF_PERICENTER":76.4422,"MEAN_ANOMALY":283.7167,"EPHEMERIS_TYPE":0,"CLASSIFICATION_TYPE":"U","NORAD_CAT_ID":65980,"ELEMENT_SET_NO":999,"REV_AT_EPOCH":2004,"BSTAR":9.0952862e-5,"MEAN_MOTION_DOT":1.14e-6,"MEAN_MOTION_DDOT":0},{"OBJECT_NAME":"SL-8 R\/B","OBJECT_ID":"1987-009B","EPOCH":"2026-03-09T22:29:36.299616","MEAN_MOTION":13.77044583,"ECCENTRICITY":0.00309244,"INCLINATION":82.9171,"RA_OF_ASC_NODE":51.4038,"ARG_OF_PERICENTER":277.3291,"MEAN_ANOMALY":139.3913,"EPHEMERIS_TYPE":0,"CLASSIFICATION_TYPE":"U","NORAD_CAT_ID":17360,"ELEMENT_SET_NO":999,"REV_AT_EPOCH":96464,"BSTAR":7.1598878e-5,"MEAN_MOTION_DOT":8.6e-7,"MEAN_MOTION_DDOT":0}]
